CTC1_L_00109001-01
1 23845U 23845XG  26037.47802083  .00000000  00000+0  00000-0 0  9993
2 23845  60.0000   0.0000 0000000   0.0000   0.0000 14.33516502    11
CTC1_L_00109001-02
1 23846U 24339JZ  26037.47802083  .00000000  00000+0  00000-0 0  9993
2 23846  60.0000   0.0000 0000000   0.0000  90.0000 14.33516502    11
CTC1_L_00109001-03
1 23847U 22996WQ  26037.47802083  .00000000  00000+0  00000-0 0  9991
2 23847  60.0000   0.0000 0000000   0.0000 180.0000 14.33516502    12
CTC1_L_00109001-04
1 23848U 23779ZD  26037.47802083  .00000000  00000+0  00000-0 0  9992
2 23848  60.0000   0.0000 0000000   0.0000 270.0000 14.33516502    13
CTC1_L_00109002-01
1 23849U 22893CP  26037.47802083  .00000000  00000+0  00000-0 0  9999
2 23849  60.0000  12.0000 0000000   0.0000  12.0000 14.33516502    11
CTC1_L_00109002-02
1 23850U 25251PH  26037.47802083  .00000000  00000+0  00000-0 0  9992
2 23850  60.0000  12.0000 0000000   0.0000 102.0000 14.33516502    13
CTC1_L_00109002-03
1 23851U 24418PN  26037.47802083  .00000000  00000+0  00000-0 0  9997
2 23851  60.0000  12.0000 0000000   0.0000 192.0000 14.33516502    13
CTC1_L_00109002-04
1 23852U 24292TW  26037.47802083  .00000000  00000+0  00000-0 0  9998
2 23852  60.0000  12.0000 0000000   0.0000 282.0000 14.33516502    14
CTC1_L_00109003-01
1 23853U 22313TL  26037.47802083  .00000000  00000+0  00000-0 0  9991
2 23853  60.0000  24.0000 0000000   0.0000  24.0000 14.33516502    12
CTC1_L_00109003-02
1 23854U 22128HF  26037.47802083  .00000000  00000+0  00000-0 0  9996
2 23854  60.0000  24.0000 0000000   0.0000 114.0000 14.33516502    13
CTC1_L_00109003-03
1 23855U 22153AJ  26037.47802083  .00000000  00000+0  00000-0 0  9995
2 23855  60.0000  24.0000 0000000   0.0000 204.0000 14.33516502    14
CTC1_L_00109003-04
1 23856U 24588XK  26037.47802083  .00000000  00000+0  00000-0 0  9990
2 23856  60.0000  24.0000 0000000   0.0000 294.0000 14.33516502    14
CTC1_L_00109004-01
1 23857U 22081XO  26037.47802083  .00000000  00000+0  00000-0 0  9997
2 23857  60.0000  36.0000 0000000   0.0000  36.0000 14.33516502    12
CTC1_L_00109004-02
1 23858U 23366AY  26037.47802083  .00000000  00000+0  00000-0 0  9995
2 23858  60.0000  36.0000 0000000   0.0000 126.0000 14.33516502    13
CTC1_L_00109004-03
1 23859U 24334UV  26037.47802083  .00000000  00000+0  00000-0 0  9992
2 23859  60.0000  36.0000 0000000   0.0000 216.0000 14.33516502    14
CTC1_L_00109004-04
1 23860U 23537VX  26037.47802083  .00000000  00000+0  00000-0 0  9998
2 23860  60.0000  36.0000 0000000   0.0000 306.0000 14.33516502    16
CTC1_L_00109005-01
1 23861U 24223FM  26037.47802083  .00000000  00000+0  00000-0 0  9992
2 23861  60.0000  48.0000 0000000   0.0000  48.0000 14.33516502    13
CTC1_L_00109005-02
1 23862U 23860AJ  26037.47802083  .00000000  00000+0  00000-0 0  9999
2 23862  60.0000  48.0000 0000000   0.0000 138.0000 14.33516502    14
CTC1_L_00109005-03
1 23863U 22250OW  26037.47802083  .00000000  00000+0  00000-0 0  9992
2 23863  60.0000  48.0000 0000000   0.0000 228.0000 14.33516502    15
CTC1_L_00109005-04
1 23864U 23633ZV  26037.47802083  .00000000  00000+0  00000-0 0  9999
2 23864  60.0000  48.0000 0000000   0.0000 318.0000 14.33516502    16
CTC1_L_00109006-01
1 23865U 25036RA  26037.47802083  .00000000  00000+0  00000-0 0  9999
2 23865  60.0000  60.0000 0000000   0.0000  60.0000 14.33516502    15
CTC1_L_00109006-02
1 23866U 23888SK  26037.47802083  .00000000  00000+0  00000-0 0  9993
2 23866  60.0000  60.0000 0000000   0.0000 150.0000 14.33516502    16
CTC1_L_00109006-03
1 23867U 23940BW  26037.47802083  .00000000  00000+0  00000-0 0  9993
2 23867  60.0000  60.0000 0000000   0.0000 240.0000 14.33516502    17
CTC1_L_00109006-04
1 23868U 26586RP  26037.47802083  .00000000  00000+0  00000-0 0  9993
2 23868  60.0000  60.0000 0000000   0.0000 330.0000 14.33516502    18
CTC1_L_00109007-01
1 23869U 24358MB  26037.47802083  .00000000  00000+0  00000-0 0  9999
2 23869  60.0000  72.0000 0000000   0.0000  72.0000 14.33516502    15
CTC1_L_00109007-02
1 23870U 25180AQ  26037.47802083  .00000000  00000+0  00000-0 0  9995
2 23870  60.0000  72.0000 0000000   0.0000 162.0000 14.33516502    17
CTC1_L_00109007-03
1 23871U 23088DI  26037.47802083  .00000000  00000+0  00000-0 0  9991
2 23871  60.0000  72.0000 0000000   0.0000 252.0000 14.33516502    18
CTC1_L_00109007-04
1 23872U 24398LL  26037.47802083  .00000000  00000+0  00000-0 0  9997
2 23872  60.0000  72.0000 0000000   0.0000 342.0000 14.33516502    19
CTC1_L_00109008-01
1 23873U 24420GC  26037.47802083  .00000000  00000+0  00000-0 0  9994
2 23873  60.0000  84.0000 0000000   0.0000  84.0000 14.33516502    16
CTC1_L_00109008-02
1 23874U 25304RX  26037.47802083  .00000000  00000+0  00000-0 0  9997
2 23874  60.0000  84.0000 0000000   0.0000 174.0000 14.33516502    17
CTC1_L_00109008-03
1 23875U 23334GQ  26037.47802083  .00000000  00000+0  00000-0 0  9999
2 23875  60.0000  84.0000 0000000   0.0000 264.0000 14.33516502    18
CTC1_L_00109008-04
1 23876U 24878FQ  26037.47802083  .00000000  00000+0  00000-0 0  9994
2 23876  60.0000  84.0000 0000000   0.0000 354.0000 14.33516502    19
CTC1_L_00109009-01
1 23877U 24216FB  26037.47802083  .00000000  00000+0  00000-0 0  9991
2 23877  60.0000  96.0000 0000000   0.0000  96.0000 14.33516502    16
CTC1_L_00109009-02
1 23878U 26147DU  26037.47802083  .00000000  00000+0  00000-0 0  9997
2 23878  60.0000  96.0000 0000000   0.0000 186.0000 14.33516502    17
CTC1_L_00109009-03
1 23879U 25319UA  26037.47802083  .00000000  00000+0  00000-0 0  9998
2 23879  60.0000  96.0000 0000000   0.0000 276.0000 14.33516502    18
CTC1_L_00109009-04
1 23880U 23409ZZ  26037.47802083  .00000000  00000+0  00000-0 0  9998
2 23880  60.0000  96.0000 0000000   0.0000   6.0000 14.33516502    11
CTC1_L_00109010-01
1 23881U 25108CH  26037.47802083  .00000000  00000+0  00000-0 0  9997
2 23881  60.0000 108.0000 0000000   0.0000 108.0000 14.33516502    19
CTC1_L_00109010-02
1 23882U 22513OT  26037.47802083  .00000000  00000+0  00000-0 0  9995
2 23882  60.0000 108.0000 0000000   0.0000 198.0000 14.33516502    19
CTC1_L_00109010-03
1 23883U 25083WB  26037.47802083  .00000000  00000+0  00000-0 0  9991
2 23883  60.0000 108.0000 0000000   0.0000 288.0000 14.33516502    10
CTC1_L_00109010-04
1 23884U 25808DJ  26037.47802083  .00000000  00000+0  00000-0 0  9997
2 23884  60.0000 108.0000 0000000   0.0000  18.0000 14.33516502    12
CTC1_L_00109011-01
1 23885U 24061KX  26037.47802083  .00000000  00000+0  00000-0 0  9998
2 23885  60.0000 120.0000 0000000   0.0000 120.0000 14.33516502    11
CTC1_L_00109011-02
1 23886U 23354PH  26037.47802083  .00000000  00000+0  00000-0 0  9993
2 23886  60.0000 120.0000 0000000   0.0000 210.0000 14.33516502    12
CTC1_L_00109011-03
1 23887U 25836SE  26037.47802083  .00000000  00000+0  00000-0 0  9991
2 23887  60.0000 120.0000 0000000   0.0000 300.0000 14.33516502    13
CTC1_L_00109011-04
1 23888U 25519ZX  26037.47802083  .00000000  00000+0  00000-0 0  9990
2 23888  60.0000 120.0000 0000000   0.0000  30.0000 14.33516502    14
CTC1_L_00109012-01
1 23889U 23048XP  26037.47802083  .00000000  00000+0  00000-0 0  9996
2 23889  60.0000 132.0000 0000000   0.0000 132.0000 14.33516502    11
CTC1_L_00109012-02
1 23890U 24689FI  26037.47802083  .00000000  00000+0  00000-0 0  9990
2 23890  60.0000 132.0000 0000000   0.0000 222.0000 14.33516502    13
CTC1_L_00109012-03
1 23891U 22406WV  26037.47802083  .00000000  00000+0  00000-0 0  9996
2 23891  60.0000 132.0000 0000000   0.0000 312.0000 14.33516502    14
CTC1_L_00109012-04
1 23892U 25929MS  26037.47802083  .00000000  00000+0  00000-0 0  9990
2 23892  60.0000 132.0000 0000000   0.0000  42.0000 14.33516502    15
CTC1_L_00109013-01
1 23893U 22817ZC  26037.47802083  .00000000  00000+0  00000-0 0  9994
2 23893  60.0000 144.0000 0000000   0.0000 144.0000 14.33516502    12
CTC1_L_00109013-02
1 23894U 23748RN  26037.47802083  .00000000  00000+0  00000-0 0  9999
2 23894  60.0000 144.0000 0000000   0.0000 234.0000 14.33516502    13
CTC1_L_00109013-03
1 23895U 23690IN  26037.47802083  .00000000  00000+0  00000-0 0  9996
2 23895  60.0000 144.0000 0000000   0.0000 324.0000 14.33516502    14
CTC1_L_00109013-04
1 23896U 22827V   26037.47802083  .00000000  00000+0  00000-0 0  9998
2 23896  60.0000 144.0000 0000000   0.0000  54.0000 14.33516502    15
CTC1_L_00109014-01
1 23897U 26760BE  26037.47802083  .00000000  00000+0  00000-0 0  9999
2 23897  60.0000 156.0000 0000000   0.0000 156.0000 14.33516502    12
CTC1_L_00109014-02
1 23898U 25420EW  26037.47802083  .00000000  00000+0  00000-0 0  9992
2 23898  60.0000 156.0000 0000000   0.0000 246.0000 14.33516502    13
CTC1_L_00109014-03
1 23899U 26500IG  26037.47802083  .00000000  00000+0  00000-0 0  9993
2 23899  60.0000 156.0000 0000000   0.0000 336.0000 14.33516502    14
CTC1_L_00109014-04
1 23900U 24161NJ  26037.47802083  .00000000  00000+0  00000-0 0  9997
2 23900  60.0000 156.0000 0000000   0.0000  66.0000 14.33516502    17
CTC1_L_00109015-01
1 23901U 22549YR  26037.47802083  .00000000  00000+0  00000-0 0  9996
2 23901  60.0000 168.0000 0000000   0.0000 168.0000 14.33516502    14
CTC1_L_00109015-02
1 23902U 25728FC  26037.47802083  .00000000  00000+0  00000-0 0  9999
2 23902  60.0000 168.0000 0000000   0.0000 258.0000 14.33516502    15
CTC1_L_00109015-03
1 23903U 26744RA  26037.47802083  .00000000  00000+0  00000-0 0  9999
2 23903  60.0000 168.0000 0000000   0.0000 348.0000 14.33516502    16
CTC1_L_00109015-04
1 23904U 26886IX  26037.47802083  .00000000  00000+0  00000-0 0  9997
2 23904  60.0000 168.0000 0000000   0.0000  78.0000 14.33516502    17
CTC1_L_00109016-01
1 23905U 25548SO  26037.47802083  .00000000  00000+0  00000-0 0  9992
2 23905  60.0000 180.0000 0000000   0.0000 180.0000 14.33516502    16
CTC1_L_00109016-02
1 23906U 22455IW  26037.47802083  .00000000  00000+0  00000-0 0  9997
2 23906  60.0000 180.0000 0000000   0.0000 270.0000 14.33516502    17
